{"type": "FeatureCollection", "features": [ {"type": "Feature", "properties": {"norad_id": 66897, "name": "STARLINK-36079", "group": "last-30-days", "lat": 27.317311138703946, "lon": -159.99596321111065, "alt_km": 335.3110655101609, "timestamp": "2025-12-18T21:31:49.700697+00:00", "meta": {"OBJECT_NAME": "STARLINK-36079", "OBJECT_ID": "2025-283V", "EPOCH": "2025-12-18T06:00:02.999808", "MEAN_MOTION": 15.79216008, "ECCENTRICITY": 8.554e-05, "INCLINATION": 53.1575, "RA_OF_ASC_NODE": 46.0206, "ARG_OF_PERICENTER": 81.8165, "MEAN_ANOMALY": 344.8437, "EPHEMERIS_TYPE": 0, "CLASSIFICATION_TYPE": "U", "NORAD_CAT_ID": 66897, "ELEMENT_SET_NO": 999, "REV_AT_EPOCH": 331, "BSTAR": -0.0097194886, "MEAN_MOTION_DOT": -0.01558963, "MEAN_MOTION_DDOT": 0}, "tle": {"line1": "1 66897U 25283V   25352.25003472 -.01558963  00000+0 -97195-2 0  9997", "line2": "2 66897  53.1575  46.0206 0000855  81.8165 344.8437 15.79216008  3318"}}, "geometry": {"type": "Point", "coordinates": [-159.99596321111065, 27.317311138703946]}}, {"type": "Feature", "properties": {"norad_id": 66898, "name": "STARLINK-36065", "group": "last-30-days", "lat": 25.64198018743312, "lon": -158.311074154732, "alt_km": 336.0571038257758, "timestamp": "2025-12-18T21:31:49.700709+00:00", "meta": {"OBJECT_NAME": "STARLINK-36065", "OBJECT_ID": "2025-283W", "EPOCH": "2025-12-18T06:00:02.999808", "MEAN_MOTION": 15.79146953, "ECCENTRICITY": 8.952e-05, "INCLINATION": 53.1572, "RA_OF_ASC_NODE": 46.0147, "ARG_OF_PERICENTER": 74.0099, "MEAN_ANOMALY": 355.1341, "EPHEMERIS_TYPE": 0, "CLASSIFICATION_TYPE": "U", "NORAD_CAT_ID": 66898, "ELEMENT_SET_NO": 999, "REV_AT_EPOCH": 331, "BSTAR": -0.010017808, "MEAN_MOTION_DOT": -0.01596213, "MEAN_MOTION_DDOT": 0}, "tle": {"line1": "1 66898U 25283W   25352.25003472 -.01596213  00000+0 -10018-1 0  9996", "line2": "2 66898  53.1572  46.0147 0000895  74.0099 355.1341 15.79146953  3314"}}, "geometry": {"type": "Point", "coordinates": [-158.311074154732, 25.64198018743312]}}, {"type": "Feature", "properties": {"norad_id": 66899, "name": "STARLINK-36064", "group": "last-30-days", "lat": 23.995785478828566, "lon": -156.71780272292614, "alt_km": 336.5041874966846, "timestamp": "2025-12-18T21:31:49.700719+00:00", "meta": {"OBJECT_NAME": "STARLINK-36064", "OBJECT_ID": "2025-283X", "EPOCH": "2025-12-18T06:00:02.999808", "MEAN_MOTION": 15.79078086, "ECCENTRICITY": 9.175e-05, "INCLINATION": 53.1572, "RA_OF_ASC_NODE": 46.0098, "ARG_OF_PERICENTER": 84.3992, "MEAN_ANOMALY": 347.1399, "EPHEMERIS_TYPE": 0, "CLASSIFICATION_TYPE": "U", "NORAD_CAT_ID": 66899, "ELEMENT_SET_NO": 999, "REV_AT_EPOCH": 325, "BSTAR": -0.010215277, "MEAN_MOTION_DOT": -0.01619078, "MEAN_MOTION_DDOT": 0}, "tle": {"line1": "1 66899U 25283X   25352.25003472 -.01619078  00000+0 -10215-1 0  9991", "line2": "2 66899  53.1572  46.0098 0000917  84.3992 347.1399 15.79078086  3259"}}, "geometry": {"type": "Point", "coordinates": [-156.71780272292614, 23.995785478828566]}}, {"type": "Feature", "properties": {"norad_id": 66900, "name": "STARLINK-36074", "group": "last-30-days", "lat": 22.31579427714649, "lon": -155.15173373181818, "alt_km": 337.05473295167576, "timestamp": "2025-12-18T21:31:49.700730+00:00", "meta": {"OBJECT_NAME": "STARLINK-36074", "OBJECT_ID": "2025-283Y", "EPOCH": "2025-12-18T06:00:02.999808", "MEAN_MOTION": 15.78983619, "ECCENTRICITY": 0.00010933, "INCLINATION": 53.1544, "RA_OF_ASC_NODE": 46.004, "ARG_OF_PERICENTER": 73.472, "MEAN_ANOMALY": 0.5237, "EPHEMERIS_TYPE": 0, "CLASSIFICATION_TYPE": "U", "NORAD_CAT_ID": 66900, "ELEMENT_SET_NO": 999, "REV_AT_EPOCH": 331, "BSTAR": -0.01035529, "MEAN_MOTION_DOT": -0.01632296, "MEAN_MOTION_DDOT": 0}, "tle": {"line1": "1 66900U 25283Y   25352.25003472 -.01632296  00000+0 -10355-1 0  9996", "line2": "2 66900  53.1544  46.0040 0001093  73.4720   0.5237 15.78983619  3316"}}, "geometry": {"type": "Point", "coordinates": [-155.15173373181818, 22.31579427714649]}}, {"type": "Feature", "properties": {"norad_id": 66901, "name": "STARLINK-36043", "group": "last-30-days", "lat": 20.694636060826795, "lon": -153.68568672583513, "alt_km": 337.59248625692726, "timestamp": "2025-12-18T21:31:49.700740+00:00", "meta": {"OBJECT_NAME": "STARLINK-36043", "OBJECT_ID": "2025-283Z", "EPOCH": "2025-12-18T06:00:02.999808", "MEAN_MOTION": 15.78925342, "ECCENTRICITY": 8.637e-05, "INCLINATION": 53.1546, "RA_OF_ASC_NODE": 45.9993, "ARG_OF_PERICENTER": 89.1921, "MEAN_ANOMALY": 347.0843, "EPHEMERIS_TYPE": 0, "CLASSIFICATION_TYPE": "U", "NORAD_CAT_ID": 66901, "ELEMENT_SET_NO": 999, "REV_AT_EPOCH": 331, "BSTAR": -0.01047442, "MEAN_MOTION_DOT": -0.01678003, "MEAN_MOTION_DDOT": 0}, "tle": {"line1": "1 66901U 25283Z   25352.25003472 -.01678003  00000+0 -10474-1 0  9995", "line2": "2 66901  53.1546  45.9993 0000863  89.1921 347.0843 15.78925342  3316"}}, "geometry": {"type": "Point", "coordinates": [-153.68568672583513, 20.694636060826795]}}, {"type": "Feature", "properties": {"norad_id": 66902, "name": "STARLINK-35983", "group": "last-30-days", "lat": 18.96747812546406, "lon": -152.1698510052302, "alt_km": 338.3049763730078, "timestamp": "2025-12-18T21:31:49.700750+00:00", "meta": {"OBJECT_NAME": "STARLINK-35983", "OBJECT_ID": "2025-283AA", "EPOCH": "2025-12-18T06:00:02.999808", "MEAN_MOTION": 15.78820059, "ECCENTRICITY": 9.163e-05, "INCLINATION": 53.1544, "RA_OF_ASC_NODE": 45.9942, "ARG_OF_PERICENTER": 84.3957, "MEAN_ANOMALY": 354.392, "EPHEMERIS_TYPE": 0, "CLASSIFICATION_TYPE": "U", "NORAD_CAT_ID": 66902, "ELEMENT_SET_NO": 999, "REV_AT_EPOCH": 331, "BSTAR": -0.0106284, "MEAN_MOTION_DOT": -0.01692643, "MEAN_MOTION_DDOT": 0}, "tle": {"line1": "1 66902U 25283AA  25352.25003472 -.01692643  00000+0 -10628-1 0  9993", "line2": "2 66902  53.1544  45.9942 0000916  84.3957 354.3920 15.78820059  3310"}}, "geometry": {"type": "Point", "coordinates": [-152.1698510052302, 18.96747812546406]}}, {"type": "Feature", "properties": {"norad_id": 66903, "name": "STARLINK-36077", "group": "last-30-days", "lat": 17.344743773111226, "lon": -150.78314560517782, "alt_km": 338.7087088214066, "timestamp": "2025-12-18T21:31:49.700760+00:00", "meta": {"OBJECT_NAME": "STARLINK-36077", "OBJECT_ID": "2025-283AB", "EPOCH": "2025-12-18T06:00:02.999808", "MEAN_MOTION": 15.7875699, "ECCENTRICITY": 0.00010222, "INCLINATION": 53.1549, "RA_OF_ASC_NODE": 45.9897, "ARG_OF_PERICENTER": 71.8532, "MEAN_ANOMALY": 9.1745, "EPHEMERIS_TYPE": 0, "CLASSIFICATION_TYPE": "U", "NORAD_CAT_ID": 66903, "ELEMENT_SET_NO": 999, "REV_AT_EPOCH": 331, "BSTAR": -0.01066707, "MEAN_MOTION_DOT": -0.01693843, "MEAN_MOTION_DDOT": 0}, "tle": {"line1": "1 66903U 25283AB  25352.25003472 -.01693843  00000+0 -10667-1 0  9990", "line2": "2 66903  53.1549  45.9897 0001022  71.8532   9.1745 15.78756990  3316"}}, "geometry": {"type": "Point", "coordinates": [-150.78314560517782, 17.344743773111226]}}, {"type": "Feature", "properties": {"norad_id": 66904, "name": "STARLINK-36059", "group": "last-30-days", "lat": 15.691634671620434, "lon": -149.4027765427502, "alt_km": 339.28974837554324, "timestamp": "2025-12-18T21:31:49.700770+00:00", "meta": {"OBJECT_NAME": "STARLINK-36059", "OBJECT_ID": "2025-283AC", "EPOCH": "2025-12-18T06:00:02.999808", "MEAN_MOTION": 15.78685696, "ECCENTRICITY": 9.577e-05, "INCLINATION": 53.1571, "RA_OF_ASC_NODE": 45.9851, "ARG_OF_PERICENTER": 83.4305, "MEAN_ANOMALY": 359.8905, "EPHEMERIS_TYPE": 0, "CLASSIFICATION_TYPE": "U", "NORAD_CAT_ID": 66904, "ELEMENT_SET_NO": 999, "REV_AT_EPOCH": 331, "BSTAR": -0.010733812, "MEAN_MOTION_DOT": -0.01698271, "MEAN_MOTION_DDOT": 0}, "tle": {"line1": "1 66904U 25283AC  25352.25003472 -.01698271  00000+0 -10734-1 0  9996", "line2": "2 66904  53.1571  45.9851 0000957  83.4305 359.8905 15.78685696  3312"}}, "geometry": {"type": "Point", "coordinates": [-149.4027765427502, 15.691634671620434]}}, {"type": "Feature", "properties": {"norad_id": 66905, "name": "STARLINK-36075", "group": "last-30-days", "lat": 14.097864080741136, "lon": -148.10070846058477, "alt_km": 339.64078671282914, "timestamp": "2025-12-18T21:31:49.700784+00:00", "meta": {"OBJECT_NAME": "STARLINK-36075", "OBJECT_ID": "2025-283AD", "EPOCH": "2025-12-18T06:00:02.999808", "MEAN_MOTION": 15.78643762, "ECCENTRICITY": 0.00010041, "INCLINATION": 53.1573, "RA_OF_ASC_NODE": 45.9809, "ARG_OF_PERICENTER": 70.2508, "MEAN_ANOMALY": 15.21, "EPHEMERIS_TYPE": 0, "CLASSIFICATION_TYPE": "U", "NORAD_CAT_ID": 66905, "ELEMENT_SET_NO": 999, "REV_AT_EPOCH": 331, "BSTAR": -0.010795367, "MEAN_MOTION_DOT": -0.0170403, "MEAN_MOTION_DDOT": 0}, "tle": {"line1": "1 66905U 25283AD  25352.25003472 -.01704030  00000+0 -10795-1 0  9995", "line2": "2 66905  53.1573  45.9809 0001004  70.2508  15.2100 15.78643762  3319"}}, "geometry": {"type": "Point", "coordinates": [-148.10070846058477, 14.097864080741136]}}, {"type": "Feature", "properties": {"norad_id": 66906, "name": "1998-067XS", "group": "last-30-days", "lat": -49.433284559979285, "lon": -0.3909662303245817, "alt_km": 416.73835396541745, "timestamp": "2025-12-18T21:31:49.700795+00:00", "meta": {"OBJECT_NAME": "1998-067XS", "OBJECT_ID": "1998-067XS", "EPOCH": "2025-12-17T16:35:43.301760", "MEAN_MOTION": 15.50834133, "ECCENTRICITY": 0.0003138, "INCLINATION": 51.6309, "RA_OF_ASC_NODE": 117.8563, "ARG_OF_PERICENTER": 226.0893, "MEAN_ANOMALY": 133.9837, "EPHEMERIS_TYPE": 0, "CLASSIFICATION_TYPE": "U", "NORAD_CAT_ID": 66906, "ELEMENT_SET_NO": 999, "REV_AT_EPOCH": 238, "BSTAR": 0.00042869394, "MEAN_MOTION_DOT": 0.00024822, "MEAN_MOTION_DDOT": 0}, "tle": {"line1": "1 66906U 98067XS  25351.69147340  .00024822  00000+0  42869-3 0  9996", "line2": "2 66906  51.6309 117.8563 0003138 226.0893 133.9837 15.50834133  2389"}}, "geometry": {"type": "Point", "coordinates": [-0.3909662303245817, -49.433284559979285]}}]}